{
  "type": "FeatureCollection",
  "features": [
    {
      "type": "Feature",
      "properties": {
        "norad_id": 66865,
        "name": "STARLINK-36117",
        "group": "last-30-days",
        "lat": 42.50086006492989,
        "lon": -135.19136878385964,
        "alt_km": 290.0774719784258,
        "timestamp": "2025-12-12T09:49:07.483324+00:00",
        "meta_object_name": "STARLINK-36117",
        "meta_object_id": "2025-281T",
        "meta_epoch": "2025-12-12T04:00:01.998720",
        "meta_mean_motion": 15.93010933,
        "meta_eccentricity": 0.0001731,
        "meta_inclination": 43.0019,
        "meta_ra_of_asc_node": 125.8446,
        "meta_arg_of_pericenter": 269.8269,
        "meta_mean_anomaly": 236.1389,
        "meta_ephemeris_type": 0,
        "meta_classification_type": "U",
        "meta_norad_cat_id": 66865,
        "meta_element_set_no": 999,
        "meta_rev_at_epoch": 131,
        "meta_bstar": -0.0034831,
        "meta_mean_motion_dot": -0.01261757,
        "meta_mean_motion_ddot": 0.00046677,
        "tle_line1": "1 66865U 25281T   25346.16668980 -.01261757  46677-3 -34831-2 0  9998",
        "tle_line2": "2 66865  43.0019 125.8446 0001731 269.8269 236.1389 15.93010933  1315"
      },
      "geometry": {
        "type": "Point",
        "coordinates": [
          -135.19136878385964,
          42.50086006492989
        ]
      }
    },
    {
      "type": "Feature",
      "properties": {
        "norad_id": 66866,
        "name": "STARLINK-36126",
        "group": "last-30-days",
        "lat": 42.17742950901082,
        "lon": -132.142476425315,
        "alt_km": 289.8918420118516,
        "timestamp": "2025-12-12T09:49:07.483334+00:00",
        "meta_object_name": "STARLINK-36126",
        "meta_object_id": "2025-281U",
        "meta_epoch": "2025-12-12T04:00:01.998720",
        "meta_mean_motion": 15.93077255,
        "meta_eccentricity": 0.0001596,
        "meta_inclination": 43.0018,
        "meta_ra_of_asc_node": 125.8392,
        "meta_arg_of_pericenter": 273.116,
        "meta_mean_anomaly": 235.0741,
        "meta_ephemeris_type": 0,
        "meta_classification_type": "U",
        "meta_norad_cat_id": 66866,
        "meta_element_set_no": 999,
        "meta_rev_at_epoch": 134,
        "meta_bstar": -0.0035437,
        "meta_mean_motion_dot": -0.01287886,
        "meta_mean_motion_ddot": 0.00048492,
        "tle_line1": "1 66866U 25281U   25346.16668980 -.01287886  48492-3 -35437-2 0  9990",
        "tle_line2": "2 66866  43.0018 125.8392 0001596 273.1160 235.0741 15.93077255  1345"
      },
      "geometry": {
        "type": "Point",
        "coordinates": [
          -132.142476425315,
          42.17742950901082
        ]
      }
    },
    {
      "type": "Feature",
      "properties": {
        "norad_id": 66867,
        "name": "STARLINK-36101",
        "group": "last-30-days",
        "lat": 41.621231024782226,
        "lon": -128.12697146962878,
        "alt_km": 289.71646365100605,
        "timestamp": "2025-12-12T09:49:07.483346+00:00",
        "meta_object_name": "STARLINK-36101",
        "meta_object_id": "2025-281V",
        "meta_epoch": "2025-12-12T04:00:01.998720",
        "meta_mean_motion": 15.93155105,
        "meta_eccentricity": 0.0001467,
        "meta_inclination": 43.002,
        "meta_ra_of_asc_node": 125.8313,
        "meta_arg_of_pericenter": 274.5114,
        "meta_mean_anomaly": 236.659,
        "meta_ephemeris_type": 0,
        "meta_classification_type": "U",
        "meta_norad_cat_id": 66867,
        "meta_element_set_no": 999,
        "meta_rev_at_epoch": 130,
        "meta_bstar": -0.0036161,
        "meta_mean_motion_dot": -0.01319243,
        "meta_mean_motion_ddot": 0.00050713,
        "tle_line1": "1 66867U 25281V   25346.16668980 -.01319243  50713-3 -36161-2 0  9998",
        "tle_line2": "2 66867  43.0020 125.8313 0001467 274.5114 236.6590 15.93155105  1309"
      },
      "geometry": {
        "type": "Point",
        "coordinates": [
          -128.12697146962878,
          41.621231024782226
        ]
      }
    },
    {
      "type": "Feature",
      "properties": {
        "norad_id": 66868,
        "name": "STARLINK-36108",
        "group": "last-30-days",
        "lat": 40.86797288850405,
        "lon": -123.88758605163775,
        "alt_km": 289.77915680612386,
        "timestamp": "2025-12-12T09:49:07.483364+00:00",
        "meta_object_name": "STARLINK-36108",
        "meta_object_id": "2025-281W",
        "meta_epoch": "2025-12-12T04:00:01.998720",
        "meta_mean_motion": 15.93252936,
        "meta_eccentricity": 0.0001631,
        "meta_inclination": 43.002,
        "meta_ra_of_asc_node": 125.8233,
        "meta_arg_of_pericenter": 273.8335,
        "meta_mean_anomaly": 240.5468,
        "meta_ephemeris_type": 0,
        "meta_classification_type": "U",
        "meta_norad_cat_id": 66868,
        "meta_element_set_no": 999,
        "meta_rev_at_epoch": 130,
        "meta_bstar": -0.0038256,
        "meta_mean_motion_dot": -0.01401934,
        "meta_mean_motion_ddot": 0.00056742,
        "tle_line1": "1 66868U 25281W   25346.16668980 -.01401934  56742-3 -38256-2 0  9993",
        "tle_line2": "2 66868  43.0020 125.8233 0001631 273.8335 240.5468 15.93252936  1309"
      },
      "geometry": {
        "type": "Point",
        "coordinates": [
          -123.88758605163775,
          40.86797288850405
        ]
      }
    },
    {
      "type": "Feature",
      "properties": {
        "norad_id": 66869,
        "name": "STARLINK-36092",
        "group": "last-30-days",
        "lat": 40.17607319079087,
        "lon": -120.66044901234172,
        "alt_km": 289.8508584150077,
        "timestamp": "2025-12-12T09:49:07.483377+00:00",
        "meta_object_name": "STARLINK-36092",
        "meta_object_id": "2025-281X",
        "meta_epoch": "2025-12-12T04:00:01.998720",
        "meta_mean_motion": 15.93326353,
        "meta_eccentricity": 0.0001809,
        "meta_inclination": 43.002,
        "meta_ra_of_asc_node": 125.8168,
        "meta_arg_of_pericenter": 269.7651,
        "meta_mean_anomaly": 247.1168,
        "meta_ephemeris_type": 0,
        "meta_classification_type": "U",
        "meta_norad_cat_id": 66869,
        "meta_element_set_no": 999,
        "meta_rev_at_epoch": 134,
        "meta_bstar": -0.0039775,
        "meta_mean_motion_dot": -0.01462592,
        "meta_mean_motion_ddot": 0.0006137,
        "tle_line1": "1 66869U 25281X   25346.16668980 -.01462592  61370-3 -39775-2 0  9991",
        "tle_line2": "2 66869  43.0020 125.8168 0001809 269.7651 247.1168 15.93326353  1348"
      },
      "geometry": {
        "type": "Point",
        "coordinates": [
          -120.66044901234172,
          40.17607319079087
        ]
      }
    },
    {
      "type": "Feature",
      "properties": {
        "norad_id": 66870,
        "name": "STARLINK-36114",
        "group": "last-30-days",
        "lat": 38.682231387638645,
        "lon": -114.9208791602928,
        "alt_km": 273.3833511019957,
        "timestamp": "2025-12-12T09:49:07.483387+00:00",
        "meta_object_name": "STARLINK-36114",
        "meta_object_id": "2025-281Y",
        "meta_epoch": "2025-12-11T18:20:53.549952",
        "meta_mean_motion": 15.97988777,
        "meta_eccentricity": 0.0001458,
        "meta_inclination": 43.0018,
        "meta_ra_of_asc_node": 128.3499,
        "meta_arg_of_pericenter": 296.4639,
        "meta_mean_anomaly": 63.6089,
        "meta_ephemeris_type": 0,
        "meta_classification_type": "U",
        "meta_norad_cat_id": 66870,
        "meta_element_set_no": 999,
        "meta_rev_at_epoch": 263,
        "meta_bstar": 0.00076121,
        "meta_mean_motion_dot": 0.00359718,
        "meta_mean_motion_ddot": 6.0966e-05,
        "tle_line1": "1 66870U 25281Y   25345.76450868  .00359718  60966-4  76121-3 0  9992",
        "tle_line2": "2 66870  43.0018 128.3499 0001458 296.4639  63.6089 15.97988777  2639"
      },
      "geometry": {
        "type": "Point",
        "coordinates": [
          -114.9208791602928,
          38.682231387638645
        ]
      }
    },
    {
      "type": "Feature",
      "properties": {
        "norad_id": 66871,
        "name": "STARLINK-36095",
        "group": "last-30-days",
        "lat": 37.94439494702257,
        "lon": -112.50758517590072,
        "alt_km": 289.73273494994373,
        "timestamp": "2025-12-12T09:49:07.483397+00:00",
        "meta_object_name": "STARLINK-36095",
        "meta_object_id": "2025-281Z",
        "meta_epoch": "2025-12-12T04:00:01.998720",
        "meta_mean_motion": 15.93445555,
        "meta_eccentricity": 0.0001474,
        "meta_inclination": 43.0015,
        "meta_ra_of_asc_node": 125.7993,
        "meta_arg_of_pericenter": 270.9738,
        "meta_mean_anomaly": 252.5341,
        "meta_ephemeris_type": 0,
        "meta_classification_type": "U",
        "meta_norad_cat_id": 66871,
        "meta_element_set_no": 999,
        "meta_rev_at_epoch": 134,
        "meta_bstar": -0.0041681,
        "meta_mean_motion_dot": -0.015413,
        "meta_mean_motion_ddot": 0.0006765,
        "tle_line1": "1 66871U 25281Z   25346.16668980 -.01541300  67650-3 -41681-2 0  9995",
        "tle_line2": "2 66871  43.0015 125.7993 0001474 270.9738 252.5341 15.93445555  1347"
      },
      "geometry": {
        "type": "Point",
        "coordinates": [
          -112.50758517590072,
          37.94439494702257
        ]
      }
    }
  ]
}